[{"OBJECT_NAME":"GPS BIIR-08","OBJECT_ID":"2003-005A","EPOCH":"2026-03-06T09:53:39.321888","MEAN_MOTION":2.005662,"ECCENTRICITY":0.01487327,"INCLINATION":54.9069,"RA_OF_ASC_NODE":219.0498,"ARG_OF_PERICENTER":52.7313,"MEAN_ANOMALY":318.1949,"EPHEMERIS_TYPE":0,"CLASSIFICATION_TYPE":"U","NORAD_CAT_ID":27663,"ELEMENT_SET_NO":999,"REV_AT_EPOCH":16925,"BSTAR":0,"MEAN_MOTION_DOT":2.0e-7,"MEAN_MOTION_DDOT":0},{"OBJECT_NAME":"GPS BIIR-11","OBJECT_ID":"2004-009A","EPOCH":"2026-03-07T14:00:06.040800","MEAN_MOTION":2.00558069,"ECCENTRICITY":0.0111094,"INCLINATION":54.9132,"RA_OF_ASC_NODE":279.7911,"ARG_OF_PERICENTER":169.1473,"MEAN_ANOMALY":123.2267,"EPHEMERIS_TYPE":0,"CLASSIFICATION_TYPE":"U","NORAD_CAT_ID":28190,"ELEMENT_SET_NO":999,"REV_AT_EPOCH":16090,"BSTAR":0,"MEAN_MOTION_DOT":-1.6e-7,"MEAN_MOTION_DDOT":0},{"OBJECT_NAME":"GPS BIIR-13","OBJECT_ID":"2004-045A","EPOCH":"2026-03-06T09:14:23.383968","MEAN_MOTION":2.00573556,"ECCENTRICITY":0.01708115,"INCLINATION":55.1936,"RA_OF_ASC_NODE":329.0394,"ARG_OF_PERICENTER":312.9081,"MEAN_ANOMALY":257.6882,"EPHEMERIS_TYPE":0,"CLASSIFICATION_TYPE":"U","NORAD_CAT_ID":28474,"ELEMENT_SET_NO":999,"REV_AT_EPOCH":15636,"BSTAR":0,"MEAN_MOTION_DOT":-9.5e-7,"MEAN_MOTION_DDOT":0},{"OBJECT_NAME":"GPS BIIR-14M","OBJECT_ID":"2005-038A","EPOCH":"2026-03-06T15:45:49.229856","MEAN_MOTION":2.0057291,"ECCENTRICITY":0.0128744,"INCLINATION":54.9613,"RA_OF_ASC_NODE":277.314,"ARG_OF_PERICENTER":295.3788,"MEAN_ANOMALY":71.8812,"EPHEMERIS_TYPE":0,"CLASSIFICATION_TYPE":"U","NORAD_CAT_ID":28874,"ELEMENT_SET_NO":999,"REV_AT_EPOCH":14978,"BSTAR":0,"MEAN_MOTION_DOT":-1.7e-7,"MEAN_MOTION_DDOT":0},{"OBJECT_NAME":"METEOSAT-9 (MSG-2)","OBJECT_ID":"2005-049B","EPOCH":"2026-03-07T02:09:20.625984","MEAN_MOTION":1.00278827,"ECCENTRICITY":0.00015692,"INCLINATION":9.1309,"RA_OF_ASC_NODE":55.1553,"ARG_OF_PERICENTER":224.373,"MEAN_ANOMALY":323.3977,"EPHEMERIS_TYPE":0,"CLASSIFICATION_TYPE":"U","NORAD_CAT_ID":28912,"ELEMENT_SET_NO":999,"REV_AT_EPOCH":597,"BSTAR":0,"MEAN_MOTION_DOT":1.23e-6,"MEAN_MOTION_DDOT":0},{"OBJECT_NAME":"GPS BIIR-16M","OBJECT_ID":"2006-052A","EPOCH":"2026-03-06T16:57:50.819616","MEAN_MOTION":2.00551839,"ECCENTRICITY":0.00878314,"INCLINATION":54.9563,"RA_OF_ASC_NODE":218.066,"ARG_OF_PERICENTER":89.3999,"MEAN_ANOMALY":271.562,"EPHEMERIS_TYPE":0,"CLASSIFICATION_TYPE":"U","NORAD_CAT_ID":29601,"ELEMENT_SET_NO":999,"REV_AT_EPOCH":14135,"BSTAR":0,"MEAN_MOTION_DOT":2.3e-7,"MEAN_MOTION_DDOT":0},{"OBJECT_NAME":"GPS BIIR-17M","OBJECT_ID":"2007-047A","EPOCH":"2026-03-06T00:23:33.368352","MEAN_MOTION":2.00560687,"ECCENTRICITY":0.01636139,"INCLINATION":54.017,"RA_OF_ASC_NODE":84.3168,"ARG_OF_PERICENTER":85.9747,"MEAN_ANOMALY":275.9459,"EPHEMERIS_TYPE":0,"CLASSIFICATION_TYPE":"U","NORAD_CAT_ID":32260,"ELEMENT_SET_NO":999,"REV_AT_EPOCH":13474,"BSTAR":0,"MEAN_MOTION_DOT":-1.5e-7,"MEAN_MOTION_DDOT":0},{"OBJECT_NAME":"GPS BIIR-18M","OBJECT_ID":"2007-062A","EPOCH":"2026-03-06T01:54:28.774080","MEAN_MOTION":2.00553677,"ECCENTRICITY":0.00329705,"INCLINATION":55.1135,"RA_OF_ASC_NODE":278.2961,"ARG_OF_PERICENTER":160.6738,"MEAN_ANOMALY":12.9295,"EPHEMERIS_TYPE":0,"CLASSIFICATION_TYPE":"U","NORAD_CAT_ID":32384,"ELEMENT_SET_NO":999,"REV_AT_EPOCH":13344,"BSTAR":0,"MEAN_MOTION_DOT":-2.0e-7,"MEAN_MOTION_DDOT":0},{"OBJECT_NAME":"GOES 14","OBJECT_ID":"2009-033A","EPOCH":"2026-03-07T11:26:38.610528","MEAN_MOTION":1.00100837,"ECCENTRICITY":0.00017547,"INCLINATION":1.4269,"RA_OF_ASC_NODE":84.3767,"ARG_OF_PERICENTER":259.2285,"MEAN_ANOMALY":193.1965,"EPHEMERIS_TYPE":0,"CLASSIFICATION_TYPE":"U","NORAD_CAT_ID":35491,"ELEMENT_SET_NO":999,"REV_AT_EPOCH":557,"BSTAR":0,"MEAN_MOTION_DOT":1.21e-6,"MEAN_MOTION_DDOT":0},{"OBJECT_NAME":"GOES 15","OBJECT_ID":"2010-008A","EPOCH":"2026-03-07T13:49:21.952992","MEAN_MOTION":1.00270074,"ECCENTRICITY":0.00021659,"INCLINATION":1.0163,"RA_OF_ASC_NODE":85.0841,"ARG_OF_PERICENTER":16.8873,"MEAN_ANOMALY":334.1046,"EPHEMERIS_TYPE":0,"CLASSIFICATION_TYPE":"U","NORAD_CAT_ID":36411,"ELEMENT_SET_NO":999,"REV_AT_EPOCH":5861,"BSTAR":0,"MEAN_MOTION_DOT":2.0e-7,"MEAN_MOTION_DDOT":0},{"OBJECT_NAME":"GSAT0101 (GALILEO-PFM)","OBJECT_ID":"2011-060A","EPOCH":"2026-02-22T11:08:37.810464","MEAN_MOTION":1.70475478,"ECCENTRICITY":0.00039756,"INCLINATION":57.0318,"RA_OF_ASC_NODE":344.8758,"ARG_OF_PERICENTER":357.0591,"MEAN_ANOMALY":2.9533,"EPHEMERIS_TYPE":0,"CLASSIFICATION_TYPE":"U","NORAD_CAT_ID":37846,"ELEMENT_SET_NO":999,"REV_AT_EPOCH":8916,"BSTAR":0,"MEAN_MOTION_DOT":-8.2e-7,"MEAN_MOTION_DDOT":0},{"OBJECT_NAME":"GSAT0102 (GALILEO-FM2)","OBJECT_ID":"2011-060B","EPOCH":"2026-03-01T01:30:59.316192","MEAN_MOTION":1.70475778,"ECCENTRICITY":0.00054225,"INCLINATION":57.0301,"RA_OF_ASC_NODE":344.6971,"ARG_OF_PERICENTER":341.2092,"MEAN_ANOMALY":154.1953,"EPHEMERIS_TYPE":0,"CLASSIFICATION_TYPE":"U","NORAD_CAT_ID":37847,"ELEMENT_SET_NO":999,"REV_AT_EPOCH":8928,"BSTAR":0,"MEAN_MOTION_DOT":-1.06e-6,"MEAN_MOTION_DDOT":0},{"OBJECT_NAME":"LUCH 5A","OBJECT_ID":"2011-074B","EPOCH":"2026-03-07T18:08:13.295616","MEAN_MOTION":1.00276314,"ECCENTRICITY":0.0003819,"INCLINATION":8.4953,"RA_OF_ASC_NODE":75.296,"ARG_OF_PERICENTER":249.7918,"MEAN_ANOMALY":279.566,"EPHEMERIS_TYPE":0,"CLASSIFICATION_TYPE":"U","NORAD_CAT_ID":37951,"ELEMENT_SET_NO":999,"REV_AT_EPOCH":5203,"BSTAR":0,"MEAN_MOTION_DOT":-4.7e-7,"MEAN_MOTION_DDOT":0},{"OBJECT_NAME":"METEOSAT-10 (MSG-3)","OBJECT_ID":"2012-035B","EPOCH":"2026-03-07T06:22:38.729856","MEAN_MOTION":1.00268083,"ECCENTRICITY":0.0002485,"INCLINATION":4.4303,"RA_OF_ASC_NODE":61.4505,"ARG_OF_PERICENTER":283.9683,"MEAN_ANOMALY":275.4508,"EPHEMERIS_TYPE":0,"CLASSIFICATION_TYPE":"U","NORAD_CAT_ID":38552,"ELEMENT_SET_NO":999,"REV_AT_EPOCH":4983,"BSTAR":0,"MEAN_MOTION_DOT":-7.0e-8,"MEAN_MOTION_DDOT":0},{"OBJECT_NAME":"SARSAT 13 (METOP-B)","OBJECT_ID":"2012-049A","EPOCH":"2026-03-07T14:45:23.978304","MEAN_MOTION":14.21443914,"ECCENTRICITY":0.00011786,"INCLINATION":98.6646,"RA_OF_ASC_NODE":120.0793,"ARG_OF_PERICENTER":277.3045,"MEAN_ANOMALY":82.7999,"EPHEMERIS_TYPE":0,"CLASSIFICATION_TYPE":"U","NORAD_CAT_ID":38771,"ELEMENT_SET_NO":999,"REV_AT_EPOCH":69883,"BSTAR":8.3720296e-5,"MEAN_MOTION_DOT":1.4e-6,"MEAN_MOTION_DDOT":0},{"OBJECT_NAME":"GPS BIIF-3","OBJECT_ID":"2012-053A","EPOCH":"2026-03-06T02:42:14.560128","MEAN_MOTION":2.00565873,"ECCENTRICITY":0.01769542,"INCLINATION":53.566,"RA_OF_ASC_NODE":147.8234,"ARG_OF_PERICENTER":64.7855,"MEAN_ANOMALY":297.0886,"EPHEMERIS_TYPE":0,"CLASSIFICATION_TYPE":"U","NORAD_CAT_ID":38833,"ELEMENT_SET_NO":999,"REV_AT_EPOCH":9737,"BSTAR":0,"MEAN_MOTION_DOT":8.0e-8,"MEAN_MOTION_DDOT":0},{"OBJECT_NAME":"GSAT0103 (GALILEO-FM3)","OBJECT_ID":"2012-055A","EPOCH":"2026-03-05T15:35:51.460224","MEAN_MOTION":1.70473457,"ECCENTRICITY":0.00054255,"INCLINATION":55.7393,"RA_OF_ASC_NODE":104.3859,"ARG_OF_PERICENTER":285.5287,"MEAN_ANOMALY":74.4915,"EPHEMERIS_TYPE":0,"CLASSIFICATION_TYPE":"U","NORAD_CAT_ID":38857,"ELEMENT_SET_NO":999,"REV_AT_EPOCH":8325,"BSTAR":0,"MEAN_MOTION_DOT":9.0e-8,"MEAN_MOTION_DDOT":0}]
